STARLINK-35733          
1 66224U 25244U   25323.83336806  .00019913  00000+0  36542-3 0  9994
2 66224  53.1599  23.9604 0001560  96.2885  16.4616 15.49290435  4525
STARLINK-35734          
1 66225U 25244V   25323.83336806  .00014319  00000+0  26522-3 0  9997
2 66225  53.1599  23.9634 0001049  88.7077  22.2433 15.49290432  4529
STARLINK-34466          
1 66226U 25244W   25323.83336806  .00008416  00000+0  15932-3 0  9992
2 66226  53.1598  23.9551 0001084  79.0395  35.7558 15.49288524  4843
STARLINK-34882          
1 66227U 25244X   25323.83336806  .00019628  00000+0  36039-3 0  9991
2 66227  53.1598  23.9503 0001215  83.8430  32.8650 15.49285006  4843
STARLINK-35731          
1 66228U 25244Y   25323.83336806  .00017207  00000+0  31701-3 0  9994
2 66228  53.1600  23.9469 0001167  80.9087  37.7143 15.49287050  4539
STARLINK-35758          
1 66229U 25244Z   25323.83336806  .00013394  00000+0  24862-3 0  9998
2 66229  53.1598  23.9434 0001154  81.4823  39.0530 15.49290158  4536
STARLINK-35736          
1 66230U 25244AA  25323.83336806  .00009015  00000+0  17009-3 0  9990
2 66230  53.1598  23.9392 0001049  78.7204  43.7412 15.49287936  4537
STARLINK-35735          
1 66231U 25244AB  25323.83336806  .00008200  00000+0  15545-3 0  9999
2 66231  53.1598  23.9354 0001067  80.6368  43.7423 15.49288354  4536
STARLINK-35753          
1 66232U 25244AC  25323.83336806  .00013075  00000+0  24291-3 0  9994
2 66232  53.1598  23.9321 0001209  87.6732  38.6127 15.49290792  4534
STARLINK-35626          
1 66233U 25244AD  25323.83336806  .00010513  00000+0  19696-3 0  9992
2 66233  53.1598  23.9279 0001307  89.5107  38.7010 15.49287976  4692
STARLINK-35537          
1 66234U 25245A   25323.83336806 -.02030677  00000+0 -34927-1 0  9993
2 66234  53.1599  77.8259 0001156  56.6890  11.9218 15.53712774  4424
STARLINK-35541          
1 66235U 25245B   25323.83336806 -.02008467  00000+0 -34525-1 0  9990
2 66235  53.1599  77.8214 0000841  58.8190  11.7165 15.53695522  4377
