CCSDS_OMM_VERS = 2.0
CREATION_DATE  = 
ORIGINATOR     = 

OBJECT_NAME    = STARLINK-35733
OBJECT_ID      = 2025-244U
CENTER_NAME    = EARTH
REF_FRAME      = TEME
TIME_SYSTEM    = UTC
MEAN_ELEMENT_THEORY = SGP/SGP4

EPOCH          = 2025-11-19T20:00:03.000384
MEAN_MOTION    = 15.49290435
ECCENTRICITY   = .000156
INCLINATION    = 53.1599
RA_OF_ASC_NODE = 23.9604
ARG_OF_PERICENTER = 96.2885
MEAN_ANOMALY   = 16.4616

EPHEMERIS_TYPE = 0
CLASSIFICATION_TYPE = U
NORAD_CAT_ID   = 66224
ELEMENT_SET_NO = 999
REV_AT_EPOCH   = 452
BSTAR          = .36542E-3
MEAN_MOTION_DOT = .19913E-3
MEAN_MOTION_DDOT = 0

CCSDS_OMM_VERS = 2.0
CREATION_DATE  = 
ORIGINATOR     = 

OBJECT_NAME    = STARLINK-35734
OBJECT_ID      = 2025-244V
CENTER_NAME    = EARTH
REF_FRAME      = TEME
TIME_SYSTEM    = UTC
MEAN_ELEMENT_THEORY = SGP/SGP4

EPOCH          = 2025-11-19T20:00:03.000384
MEAN_MOTION    = 15.49290432
ECCENTRICITY   = .0001049
INCLINATION    = 53.1599
RA_OF_ASC_NODE = 23.9634
ARG_OF_PERICENTER = 88.7077
MEAN_ANOMALY   = 22.2433

EPHEMERIS_TYPE = 0
CLASSIFICATION_TYPE = U
NORAD_CAT_ID   = 66225
ELEMENT_SET_NO = 999
REV_AT_EPOCH   = 452
BSTAR          = .26522E-3
MEAN_MOTION_DOT = .14319E-3
MEAN_MOTION_DDOT = 0

CCSDS_OMM_VERS = 2.0
CREATION_DATE  = 
ORIGINATOR     = 

OBJECT_NAME    = STARLINK-34466
OBJECT_ID      = 2025-244W
CENTER_NAME    = EARTH
REF_FRAME      = TEME
TIME_SYSTEM    = UTC
MEAN_ELEMENT_THEORY = SGP/SGP4

EPOCH          = 2025-11-19T20:00:03.000384
MEAN_MOTION    = 15.49288524
ECCENTRICITY   = .0001084
INCLINATION    = 53.1598
RA_OF_ASC_NODE = 23.9551
ARG_OF_PERICENTER = 79.0395
MEAN_ANOMALY   = 35.7558

EPHEMERIS_TYPE = 0
CLASSIFICATION_TYPE = U
NORAD_CAT_ID   = 66226
ELEMENT_SET_NO = 999
REV_AT_EPOCH   = 484
BSTAR          = .15932E-3
MEAN_MOTION_DOT = .8416E-4
MEAN_MOTION_DDOT = 0

CCSDS_OMM_VERS = 2.0
CREATION_DATE  = 
ORIGINATOR     = 

OBJECT_NAME    = STARLINK-34882
OBJECT_ID      = 2025-244X
CENTER_NAME    = EARTH
REF_FRAME      = TEME
TIME_SYSTEM    = UTC
MEAN_ELEMENT_THEORY = SGP/SGP4

EPOCH          = 2025-11-19T20:00:03.000384
MEAN_MOTION    = 15.49285006
ECCENTRICITY   = .0001215
INCLINATION    = 53.1598
RA_OF_ASC_NODE = 23.9503
ARG_OF_PERICENTER = 83.8430
MEAN_ANOMALY   = 32.8650

EPHEMERIS_TYPE = 0
CLASSIFICATION_TYPE = U
NORAD_CAT_ID   = 66227
ELEMENT_SET_NO = 999
REV_AT_EPOCH   = 484
BSTAR          = .36039E-3
MEAN_MOTION_DOT = .19628E-3
MEAN_MOTION_DDOT = 0

CCSDS_OMM_VERS = 2.0
CREATION_DATE  = 
ORIGINATOR     = 

OBJECT_NAME    = STARLINK-35731
OBJECT_ID      = 2025-244Y
CENTER_NAME    = EARTH
REF_FRAME      = TEME
TIME_SYSTEM    = UTC
MEAN_ELEMENT_THEORY = SGP/SGP4

EPOCH          = 2025-11-19T20:00:03.000384
MEAN_MOTION    = 15.49287050
ECCENTRICITY   = .0001167
INCLINATION    = 53.1600
RA_OF_ASC_NODE = 23.9469
ARG_OF_PERICENTER = 80.9087
MEAN_ANOMALY   = 37.7143

EPHEMERIS_TYPE = 0
CLASSIFICATION_TYPE = U
NORAD_CAT_ID   = 66228
ELEMENT_SET_NO = 999
REV_AT_EPOCH   = 453
BSTAR          = .31701E-3
MEAN_MOTION_DOT = .17207E-3
MEAN_MOTION_DDOT = 0

CCSDS_OMM_VERS = 2.0
CREATION_DATE  = 
ORIGINATOR     = 

OBJECT_NAME    = STARLINK-35758
OBJECT_ID      = 2025-244Z
CENTER_NAME    = EARTH
REF_FRAME      = TEME
TIME_SYSTEM    = UTC
MEAN_ELEMENT_THEORY = SGP/SGP4

EPOCH          = 2025-11-19T20:00:03.000384
MEAN_MOTION    = 15.49290158
ECCENTRICITY   = .0001154
INCLINATION    = 53.1598
RA_OF_ASC_NODE = 23.9434
ARG_OF_PERICENTER = 81.4823
MEAN_ANOMALY   = 39.0530

EPHEMERIS_TYPE = 0
CLASSIFICATION_TYPE = U
NORAD_CAT_ID   = 66229
ELEMENT_SET_NO = 999
REV_AT_EPOCH   = 453
BSTAR          = .24862E-3
MEAN_MOTION_DOT = .13394E-3
MEAN_MOTION_DDOT = 0

CCSDS_OMM_VERS = 2.0
CREATION_DATE  = 
ORIGINATOR     = 

OBJECT_NAME    = STARLINK-35736
OBJECT_ID      = 2025-244AA
CENTER_NAME    = EARTH
REF_FRAME      = TEME
TIME_SYSTEM    = UTC
MEAN_ELEMENT_THEORY = SGP/SGP4

EPOCH          = 2025-11-19T20:00:03.000384
MEAN_MOTION    = 15.49287936
ECCENTRICITY   = .0001049
INCLINATION    = 53.1598
RA_OF_ASC_NODE = 23.9392
ARG_OF_PERICENTER = 78.7204
MEAN_ANOMALY   = 43.7412

EPHEMERIS_TYPE = 0
CLASSIFICATION_TYPE = U
NORAD_CAT_ID   = 66230
ELEMENT_SET_NO = 999
REV_AT_EPOCH   = 453
BSTAR          = .17009E-3
MEAN_MOTION_DOT = .9015E-4
MEAN_MOTION_DDOT = 0

CCSDS_OMM_VERS = 2.0
CREATION_DATE  = 
ORIGINATOR     = 

OBJECT_NAME    = STARLINK-35735
OBJECT_ID      = 2025-244AB
CENTER_NAME    = EARTH
REF_FRAME      = TEME
TIME_SYSTEM    = UTC
MEAN_ELEMENT_THEORY = SGP/SGP4

EPOCH          = 2025-11-19T20:00:03.000384
MEAN_MOTION    = 15.49288354
ECCENTRICITY   = .0001067
INCLINATION    = 53.1598
RA_OF_ASC_NODE = 23.9354
ARG_OF_PERICENTER = 80.6368
MEAN_ANOMALY   = 43.7423

EPHEMERIS_TYPE = 0
CLASSIFICATION_TYPE = U
NORAD_CAT_ID   = 66231
ELEMENT_SET_NO = 999
REV_AT_EPOCH   = 453
BSTAR          = .15545E-3
MEAN_MOTION_DOT = .82E-4
MEAN_MOTION_DDOT = 0

CCSDS_OMM_VERS = 2.0
CREATION_DATE  = 
ORIGINATOR     = 

OBJECT_NAME    = STARLINK-35753
OBJECT_ID      = 2025-244AC
CENTER_NAME    = EARTH
REF_FRAME      = TEME
TIME_SYSTEM    = UTC
MEAN_ELEMENT_THEORY = SGP/SGP4

EPOCH          = 2025-11-19T20:00:03.000384
MEAN_MOTION    = 15.49290792
ECCENTRICITY   = .0001209
INCLINATION    = 53.1598
RA_OF_ASC_NODE = 23.9321
ARG_OF_PERICENTER = 87.6732
MEAN_ANOMALY   = 38.6127

EPHEMERIS_TYPE = 0
CLASSIFICATION_TYPE = U
NORAD_CAT_ID   = 66232
ELEMENT_SET_NO = 999
REV_AT_EPOCH   = 453
BSTAR          = .24291E-3
MEAN_MOTION_DOT = .13075E-3
MEAN_MOTION_DDOT = 0

CCSDS_OMM_VERS = 2.0
CREATION_DATE  = 
ORIGINATOR     = 

OBJECT_NAME    = STARLINK-35626
OBJECT_ID      = 2025-244AD
CENTER_NAME    = EARTH
REF_FRAME      = TEME
TIME_SYSTEM    = UTC
MEAN_ELEMENT_THEORY = SGP/SGP4

EPOCH          = 2025-11-19T20:00:03.000384
MEAN_MOTION    = 15.49287976
ECCENTRICITY   = .0001307
INCLINATION    = 53.1598
RA_OF_ASC_NODE = 23.9279
ARG_OF_PERICENTER = 89.5107
MEAN_ANOMALY   = 38.7010

EPHEMERIS_TYPE = 0
CLASSIFICATION_TYPE = U
NORAD_CAT_ID   = 66233
ELEMENT_SET_NO = 999
REV_AT_EPOCH   = 469
BSTAR          = .19696E-3
MEAN_MOTION_DOT = .10513E-3
MEAN_MOTION_DDOT = 0

CCSDS_OMM_VERS = 2.0
CREATION_DATE  = 
ORIGINATOR     = 

OBJECT_NAME    = STARLINK-35537
OBJECT_ID      = 2025-245A
CENTER_NAME    = EARTH
REF_FRAME      = TEME
TIME_SYSTEM    = UTC
MEAN_ELEMENT_THEORY = SGP/SGP4

EPOCH          = 2025-11-19T20:00:03.000384
MEAN_MOTION    = 15.53712774
ECCENTRICITY   = .0001156
INCLINATION    = 53.1599
RA_OF_ASC_NODE = 77.8259
ARG_OF_PERICENTER = 56.6890
MEAN_ANOMALY   = 11.9218

EPHEMERIS_TYPE = 0
CLASSIFICATION_TYPE = U
NORAD_CAT_ID   = 66234
ELEMENT_SET_NO = 999
REV_AT_EPOCH   = 442
BSTAR          = -.34927E-1
MEAN_MOTION_DOT = -.2030677E-1
MEAN_MOTION_DDOT = 0

CCSDS_OMM_VERS = 2.0
CREATION_DATE  = 
ORIGINATOR     = 

OBJECT_NAME    = STARLINK-35541
OBJECT_ID      = 2025-245B
CENTER_NAME    = EARTH
REF_FRAME      = TEME
TIME_SYSTEM    = UTC
MEAN_ELEMENT_THEORY = SGP/SGP4

EPOCH          = 2025-11-19T20:00:03.000384
MEAN_MOTION    = 15.53695522
ECCENTRICITY   = .0000841
INCLINATION    = 53.1599
RA_OF_ASC_NODE = 77.8214
ARG_OF_PERICENTER = 58.8190
MEAN_ANOMALY   = 11.7165

EPHEMERIS_TYPE = 0
CLASSIFICATION_TYPE = U
NORAD_CAT_ID   = 66235
ELEMENT_SET_NO = 999
REV_AT_EPOCH   = 437
BSTAR          = -.34525E-1
MEAN_MOTION_DOT = -.2008467E-1
MEAN_MOTION_DDOT = 0

